{"type": "FeatureCollection", "features": [ {"type": "Feature", "properties": {"norad_id": 52912, "name": "GAOFEN-12 03", "group": "resource", "lat": -66.96027682514884, "lon": -94.0870045584579, "alt_km": 638.255588490756, "timestamp": "2025-12-25T22:42:16.654281+00:00", "meta": {"OBJECT_NAME": "GAOFEN-12 03", "OBJECT_ID": "2022-069A", "EPOCH": "2025-12-25T18:08:37.339872", "MEAN_MOTION": 14.79638837, "ECCENTRICITY": 0.0001778, "INCLINATION": 97.8476, "RA_OF_ASC_NODE": 246.8043, "ARG_OF_PERICENTER": 48.0075, "MEAN_ANOMALY": 312.1288, "EPHEMERIS_TYPE": 0, "CLASSIFICATION_TYPE": "U", "NORAD_CAT_ID": 52912, "ELEMENT_SET_NO": 999, "REV_AT_EPOCH": 18896, "BSTAR": 0.00013589, "MEAN_MOTION_DOT": 9.68e-06, "MEAN_MOTION_DDOT": 0}, "tle": {"line1": "1 52912U 22069A   25359.75598773  .00000968  00000+0  13589-3 0  9994", "line2": "2 52912  97.8476 246.8043 0001778  48.0075 312.1288 14.79638837188969"}}, "geometry": {"type": "Point", "coordinates": [-94.0870045584579, -66.96027682514884]}}, {"type": "Feature", "properties": {"norad_id": 54754, "name": "SWOT", "group": "resource", "lat": 73.69119525845855, "lon": 40.46528994483069, "alt_km": 885.7014838659607, "timestamp": "2025-12-25T22:42:16.654292+00:00", "meta": {"OBJECT_NAME": "SWOT", "OBJECT_ID": "2022-173A", "EPOCH": "2025-12-25T17:04:51.521088", "MEAN_MOTION": 14.00168822, "ECCENTRICITY": 4.24e-05, "INCLINATION": 77.6108, "RA_OF_ASC_NODE": 269.4796, "ARG_OF_PERICENTER": 81.7202, "MEAN_ANOMALY": 278.3998, "EPHEMERIS_TYPE": 0, "CLASSIFICATION_TYPE": "U", "NORAD_CAT_ID": 54754, "ELEMENT_SET_NO": 999, "REV_AT_EPOCH": 15487, "BSTAR": 8.8103e-05, "MEAN_MOTION_DOT": 1.27e-06, "MEAN_MOTION_DDOT": 0}, "tle": {"line1": "1 54754U 22173A   25359.71170742  .00000127  00000+0  88103-4 0  9996", "line2": "2 54754  77.6108 269.4796 0000424  81.7202 278.3998 14.00168822154872"}}, "geometry": {"type": "Point", "coordinates": [40.46528994483069, 73.69119525845855]}}, {"type": "Feature", "properties": {"norad_id": 57654, "name": "GAOFEN-12 04", "group": "resource", "lat": 72.20745388763511, "lon": 121.18642755169391, "alt_km": 622.4527239398076, "timestamp": "2025-12-25T22:42:16.654302+00:00", "meta": {"OBJECT_NAME": "GAOFEN-12 04", "OBJECT_ID": "2023-123A", "EPOCH": "2025-12-25T18:58:54.541056", "MEAN_MOTION": 14.79737013, "ECCENTRICITY": 0.0001199, "INCLINATION": 97.9129, "RA_OF_ASC_NODE": 275.3507, "ARG_OF_PERICENTER": 80.0779, "MEAN_ANOMALY": 280.0568, "EPHEMERIS_TYPE": 0, "CLASSIFICATION_TYPE": "U", "NORAD_CAT_ID": 57654, "ELEMENT_SET_NO": 999, "REV_AT_EPOCH": 12698, "BSTAR": 0.0001996, "MEAN_MOTION_DOT": 1.449e-05, "MEAN_MOTION_DDOT": 0}, "tle": {"line1": "1 57654U 23123A   25359.79090904  .00001449  00000+0  19960-3 0  9995", "line2": "2 57654  97.9129 275.3507 0001199  80.0779 280.0568 14.79737013126983"}}, "geometry": {"type": "Point", "coordinates": [121.18642755169391, 72.20745388763511]}}, {"type": "Feature", "properties": {"norad_id": 59065, "name": "PARS 1", "group": "resource", "lat": 2.7972273640103578, "lon": 151.52949660027357, "alt_km": 451.53217775200574, "timestamp": "2025-12-25T22:42:16.654313+00:00", "meta": {"OBJECT_NAME": "PARS 1", "OBJECT_ID": "2024-039Q", "EPOCH": "2025-12-25T18:49:23.220192", "MEAN_MOTION": 15.41269995, "ECCENTRICITY": 0.0011466, "INCLINATION": 97.4655, "RA_OF_ASC_NODE": 330.9971, "ARG_OF_PERICENTER": 32.193, "MEAN_ANOMALY": 328.0014, "EPHEMERIS_TYPE": 0, "CLASSIFICATION_TYPE": "U", "NORAD_CAT_ID": 59065, "ELEMENT_SET_NO": 999, "REV_AT_EPOCH": 10189, "BSTAR": 0.00030416, "MEAN_MOTION_DOT": 0.000126, "MEAN_MOTION_DDOT": 0}, "tle": {"line1": "1 59065U 24039Q   25359.78429653  .00012600  00000+0  30416-3 0  9996", "line2": "2 59065  97.4655 330.9971 0011466  32.1930 328.0014 15.41269995101899"}}, "geometry": {"type": "Point", "coordinates": [151.52949660027357, 2.7972273640103578]}}, {"type": "Feature", "properties": {"norad_id": 59371, "name": "RESURS-P 4", "group": "resource", "lat": -71.07628315303222, "lon": 104.18957820490272, "alt_km": 477.0966728387011, "timestamp": "2025-12-25T22:42:16.654323+00:00", "meta": {"OBJECT_NAME": "RESURS-P 4", "OBJECT_ID": "2024-061A", "EPOCH": "2025-12-25T18:28:16.898592", "MEAN_MOTION": 15.3219988, "ECCENTRICITY": 7.94e-05, "INCLINATION": 97.2563, "RA_OF_ASC_NODE": 305.8344, "ARG_OF_PERICENTER": 84.7975, "MEAN_ANOMALY": 275.3357, "EPHEMERIS_TYPE": 0, "CLASSIFICATION_TYPE": "U", "NORAD_CAT_ID": 59371, "ELEMENT_SET_NO": 999, "REV_AT_EPOCH": 9720, "BSTAR": 0.00013826, "MEAN_MOTION_DOT": 4.222e-05, "MEAN_MOTION_DDOT": 0}, "tle": {"line1": "1 59371U 24061A   25359.76964003  .00004222  00000+0  13826-3 0  9999", "line2": "2 59371  97.2563 305.8344 0000794  84.7975 275.3357 15.32199880 97202"}}, "geometry": {"type": "Point", "coordinates": [104.18957820490272, -71.07628315303222]}}, {"type": "Feature", "properties": {"norad_id": 59625, "name": "LEGION 1", "group": "resource", "lat": 79.4511189513278, "lon": -60.35039377251901, "alt_km": 511.0678354011752, "timestamp": "2025-12-25T22:42:16.654334+00:00", "meta": {"OBJECT_NAME": "LEGION 1", "OBJECT_ID": "2024-081A", "EPOCH": "2025-12-25T17:31:33.758112", "MEAN_MOTION": 15.16605851, "ECCENTRICITY": 0.0003619, "INCLINATION": 97.5193, "RA_OF_ASC_NODE": 74.2577, "ARG_OF_PERICENTER": 256.6283, "MEAN_ANOMALY": 103.4547, "EPHEMERIS_TYPE": 0, "CLASSIFICATION_TYPE": "U", "NORAD_CAT_ID": 59625, "ELEMENT_SET_NO": 999, "REV_AT_EPOCH": 9124, "BSTAR": 0.00025914, "MEAN_MOTION_DOT": 4.997e-05, "MEAN_MOTION_DDOT": 0}, "tle": {"line1": "1 59625U 24081A   25359.73025183  .00004997  00000+0  25914-3 0  9997", "line2": "2 59625  97.5193  74.2577 0003619 256.6283 103.4547 15.16605851 91244"}}, "geometry": {"type": "Point", "coordinates": [-60.35039377251901, 79.4511189513278]}}, {"type": "Feature", "properties": {"norad_id": 59626, "name": "LEGION 2", "group": "resource", "lat": -79.1701851826357, "lon": 118.22939890507406, "alt_km": 520.3792880146239, "timestamp": "2025-12-25T22:42:16.654344+00:00", "meta": {"OBJECT_NAME": "LEGION 2", "OBJECT_ID": "2024-081B", "EPOCH": "2025-12-25T16:43:57.552096", "MEAN_MOTION": 15.16618674, "ECCENTRICITY": 0.0005826, "INCLINATION": 97.5196, "RA_OF_ASC_NODE": 74.313, "ARG_OF_PERICENTER": 237.7975, "MEAN_ANOMALY": 122.2694, "EPHEMERIS_TYPE": 0, "CLASSIFICATION_TYPE": "U", "NORAD_CAT_ID": 59626, "ELEMENT_SET_NO": 999, "REV_AT_EPOCH": 9124, "BSTAR": 0.00030161, "MEAN_MOTION_DOT": 5.831e-05, "MEAN_MOTION_DDOT": 0}, "tle": {"line1": "1 59626U 24081B   25359.69719389  .00005831  00000+0  30161-3 0  9999", "line2": "2 59626  97.5196  74.3130 0005826 237.7975 122.2694 15.16618674 91243"}}, "geometry": {"type": "Point", "coordinates": [118.22939890507406, -79.1701851826357]}}, {"type": "Feature", "properties": {"norad_id": 60182, "name": "ALOS-4 (DAICHI-4)", "group": "resource", "lat": -25.074001483452868, "lon": 98.33997646167248, "alt_km": 637.1803117524214, "timestamp": "2025-12-25T22:42:16.654354+00:00", "meta": {"OBJECT_NAME": "ALOS-4 (DAICHI-4)", "OBJECT_ID": "2024-123A", "EPOCH": "2025-12-25T17:56:57.595776", "MEAN_MOTION": 14.79472959, "ECCENTRICITY": 0.0001401, "INCLINATION": 97.9218, "RA_OF_ASC_NODE": 94.4093, "ARG_OF_PERICENTER": 100.6896, "MEAN_ANOMALY": 259.4473, "EPHEMERIS_TYPE": 0, "CLASSIFICATION_TYPE": "U", "NORAD_CAT_ID": 60182, "ELEMENT_SET_NO": 999, "REV_AT_EPOCH": 8023, "BSTAR": 0.00032174, "MEAN_MOTION_DOT": 2.352e-05, "MEAN_MOTION_DDOT": 0}, "tle": {"line1": "1 60182U 24123A   25359.74788884  .00002352  00000+0  32174-3 0  9998", "line2": "2 60182  97.9218  94.4093 0001401 100.6896 259.4473 14.79472959 80234"}}, "geometry": {"type": "Point", "coordinates": [98.33997646167248, -25.074001483452868]}}, {"type": "Feature", "properties": {"norad_id": 60452, "name": "LEGION 3", "group": "resource", "lat": 34.052102225545966, "lon": -78.11612375114682, "alt_km": 521.7993412224114, "timestamp": "2025-12-25T22:42:16.654365+00:00", "meta": {"OBJECT_NAME": "LEGION 3", "OBJECT_ID": "2024-146A", "EPOCH": "2025-12-25T17:43:46.495776", "MEAN_MOTION": 15.15891366, "ECCENTRICITY": 0.001575, "INCLINATION": 45.0001, "RA_OF_ASC_NODE": 240.4408, "ARG_OF_PERICENTER": 267.7909, "MEAN_ANOMALY": 92.1166, "EPHEMERIS_TYPE": 0, "CLASSIFICATION_TYPE": "U", "NORAD_CAT_ID": 60452, "ELEMENT_SET_NO": 999, "REV_AT_EPOCH": 7570, "BSTAR": 0.00029747, "MEAN_MOTION_DOT": 5.547e-05, "MEAN_MOTION_DDOT": 0}, "tle": {"line1": "1 60452U 24146A   25359.73873259  .00005547  00000+0  29747-3 0  9994", "line2": "2 60452  45.0001 240.4408 0015750 267.7909  92.1166 15.15891366 75708"}}, "geometry": {"type": "Point", "coordinates": [-78.11612375114682, 34.052102225545966]}}, {"type": "Feature", "properties": {"norad_id": 60453, "name": "LEGION 4", "group": "resource", "lat": 33.89086421432361, "lon": 13.28338386667313, "alt_km": 507.94751754976915, "timestamp": "2025-12-25T22:42:16.654376+00:00", "meta": {"OBJECT_NAME": "LEGION 4", "OBJECT_ID": "2024-146B", "EPOCH": "2025-12-25T09:49:28.163136", "MEAN_MOTION": 15.15959266, "ECCENTRICITY": 0.0008063, "INCLINATION": 45.0397, "RA_OF_ASC_NODE": 333.9951, "ARG_OF_PERICENTER": 21.758, "MEAN_ANOMALY": 338.364, "EPHEMERIS_TYPE": 0, "CLASSIFICATION_TYPE": "U", "NORAD_CAT_ID": 60453, "ELEMENT_SET_NO": 999, "REV_AT_EPOCH": 7450, "BSTAR": 0.00034013, "MEAN_MOTION_DOT": 6.381e-05, "MEAN_MOTION_DDOT": 0}, "tle": {"line1": "1 60453U 24146B   25359.40935374  .00006381  00000+0  34013-3 0  9995", "line2": "2 60453  45.0397 333.9951 0008063  21.7580 338.3640 15.15959266 74503"}}, "geometry": {"type": "Point", "coordinates": [13.28338386667313, 33.89086421432361]}}]}